;Layer height: 1.00
;Deposition width: 5.00
;Layer 1
G0 X671.34 Y450.90 Z1.20 nX0.000 nY0.000 nZ-1.000 F21000
G1 X671.34 Y450.90 Z1.20 nX0.000 nY0.000 nZ-1.000 E0.00 F3600
G1 X471.34 Y450.90 Z1.20 nX0.000 nY0.000 nZ-1.000 E397.91 F3600
G0 X471.34 Y501.23 Z1.20 nX0.000 nY0.000 nZ-1.000 F21000
G1 X471.34 Y501.23 Z1.20 nX0.000 nY0.000 nZ-1.000 E397.91 F3600
G1 X333.58 Y501.23 Z1.20 nX0.000 nY0.000 nZ-1.000 E671.98 F3600
G1 X326.13 Y500.90 Z1.20 nX0.000 nY0.000 nZ-1.000 E686.82 F3600
G1 X318.70 Y501.59 Z1.20 nX0.000 nY0.000 nZ-1.000 E701.66 F3600
G1 X311.43 Y503.27 Z1.20 nX0.000 nY0.000 nZ-1.000 E716.50 F3600
G1 X304.46 Y505.91 Z1.20 nX0.000 nY0.000 nZ-1.000 E731.34 F3600
G1 X297.90 Y509.47 Z1.20 nX0.000 nY0.000 nZ-1.000 E746.18 F3600
G1 X291.89 Y513.88 Z1.20 nX0.000 nY0.000 nZ-1.000 E761.02 F3600
G1 X286.53 Y519.06 Z1.20 nX0.000 nY0.000 nZ-1.000 E775.86 F3600
G1 X281.91 Y524.92 Z1.20 nX0.000 nY0.000 nZ-1.000 E790.70 F3600
G1 X278.13 Y531.35 Z1.20 nX0.000 nY0.000 nZ-1.000 E805.54 F3600
G1 X275.24 Y538.23 Z1.20 nX0.000 nY0.000 nZ-1.000 E820.38 F3600
G1 X273.32 Y545.44 Z1.20 nX0.000 nY0.000 nZ-1.000 E835.22 F3600
G1 X272.38 Y552.84 Z1.20 nX0.000 nY0.000 nZ-1.000 E850.06 F3600
G1 X272.45 Y560.29 Z1.20 nX0.000 nY0.000 nZ-1.000 E864.90 F3600
G1 X273.52 Y567.68 Z1.20 nX0.000 nY0.000 nZ-1.000 E879.74 F3600
G1 X275.58 Y574.84 Z1.20 nX0.000 nY0.000 nZ-1.000 E894.58 F3600
G1 X278.59 Y581.67 Z1.20 nX0.000 nY0.000 nZ-1.000 E909.42 F3600
G1 X282.49 Y588.03 Z1.20 nX0.000 nY0.000 nZ-1.000 E924.26 F3600
G1 X287.21 Y593.80 Z1.20 nX0.000 nY0.000 nZ-1.000 E939.10 F3600
G1 X292.67 Y598.88 Z1.20 nX0.000 nY0.000 nZ-1.000 E953.94 F3600
G1 X298.77 Y603.18 Z1.20 nX0.000 nY0.000 nZ-1.000 E968.78 F3600
G1 X305.38 Y606.62 Z1.20 nX0.000 nY0.000 nZ-1.000 E983.62 F3600
G1 X312.41 Y609.14 Z1.20 nX0.000 nY0.000 nZ-1.000 E998.46 F3600
G1 X319.70 Y610.68 Z1.20 nX0.000 nY0.000 nZ-1.000 E1013.30 F3600
G1 X327.14 Y611.23 Z1.20 nX0.000 nY0.000 nZ-1.000 E1028.13 F3600
G1 X332.16 Y606.23 Z1.20 nX0.000 nY0.000 nZ-1.000 E1042.22 F3600
G1 X477.46 Y606.23 Z1.20 nX0.000 nY0.000 nZ-1.000 E1331.30 F3600
G1 X484.54 Y605.73 Z1.20 nX0.000 nY0.000 nZ-1.000 E1345.43 F3600
G1 X491.48 Y604.23 Z1.20 nX0.000 nY0.000 nZ-1.000 E1359.56 F3600
G1 X498.14 Y601.77 Z1.20 nX0.000 nY0.000 nZ-1.000 E1373.68 F3600
G1 X504.39 Y598.39 Z1.20 nX0.000 nY0.000 nZ-1.000 E1387.81 F3600
G1 X510.09 Y594.16 Z1.20 nX0.000 nY0.000 nZ-1.000 E1401.94 F3600
G1 X515.15 Y589.17 Z1.20 nX0.000 nY0.000 nZ-1.000 E1416.07 F3600
G1 X519.44 Y583.52 Z1.20 nX0.000 nY0.000 nZ-1.000 E1430.19 F3600
G1 X522.90 Y577.32 Z1.20 nX0.000 nY0.000 nZ-1.000 E1444.32 F3600
G1 X525.45 Y570.69 Z1.20 nX0.000 nY0.000 nZ-1.000 E1458.45 F3600
G1 X527.03 Y563.77 Z1.20 nX0.000 nY0.000 nZ-1.000 E1472.58 F3600
G1 X527.62 Y556.69 Z1.20 nX0.000 nY0.000 nZ-1.000 E1486.70 F3600
G1 X527.21 Y549.60 Z1.20 nX0.000 nY0.000 nZ-1.000 E1500.83 F3600
G1 X525.80 Y542.64 Z1.20 nX0.000 nY0.000 nZ-1.000 E1514.96 F3600
G1 X523.42 Y535.95 Z1.20 nX0.000 nY0.000 nZ-1.000 E1529.09 F3600
G1 X520.12 Y529.66 Z1.20 nX0.000 nY0.000 nZ-1.000 E1543.22 F3600
G1 X515.97 Y523.90 Z1.20 nX0.000 nY0.000 nZ-1.000 E1557.34 F3600
G1 X511.04 Y518.79 Z1.20 nX0.000 nY0.000 nZ-1.000 E1571.47 F3600
G1 X505.44 Y514.42 Z1.20 nX0.000 nY0.000 nZ-1.000 E1585.60 F3600
G1 X499.28 Y510.89 Z1.20 nX0.000 nY0.000 nZ-1.000 E1599.73 F3600
G1 X492.69 Y508.26 Z1.20 nX0.000 nY0.000 nZ-1.000 E1613.85 F3600
G1 X485.78 Y506.59 Z1.20 nX0.000 nY0.000 nZ-1.000 E1627.98 F3600
G1 X478.72 Y505.90 Z1.20 nX0.000 nY0.000 nZ-1.000 E1642.11 F3600
G1 X471.62 Y506.23 Z1.20 nX0.000 nY0.000 nZ-1.000 E1656.24 F3600
G1 X333.30 Y506.23 Z1.20 nX0.000 nY0.000 nZ-1.000 E1931.44 F3600
G1 X326.21 Y505.90 Z1.20 nX0.000 nY0.000 nZ-1.000 E1945.55 F3600
G1 X319.16 Y506.58 Z1.20 nX0.000 nY0.000 nZ-1.000 E1959.65 F3600
G1 X312.27 Y508.24 Z1.20 nX0.000 nY0.000 nZ-1.000 E1973.75 F3600
G1 X305.68 Y510.86 Z1.20 nX0.000 nY0.000 nZ-1.000 E1987.86 F3600
G1 X299.53 Y514.38 Z1.20 nX0.000 nY0.000 nZ-1.000 E2001.96 F3600
G1 X293.93 Y518.73 Z1.20 nX0.000 nY0.000 nZ-1.000 E2016.06 F3600
G1 X289.01 Y523.83 Z1.20 nX0.000 nY0.000 nZ-1.000 E2030.16 F3600
G1 X284.85 Y529.57 Z1.20 nX0.000 nY0.000 nZ-1.000 E2044.27 F3600
G1 X281.54 Y535.84 Z1.20 nX0.000 nY0.000 nZ-1.000 E2058.37 F3600
G1 X279.15 Y542.51 Z1.20 nX0.000 nY0.000 nZ-1.000 E2072.47 F3600
G1 X277.72 Y549.46 Z1.20 nX0.000 nY0.000 nZ-1.000 E2086.58 F3600
G1 X277.29 Y556.53 Z1.20 nX0.000 nY0.000 nZ-1.000 E2100.68 F3600
G1 X277.85 Y563.60 Z1.20 nX0.000 nY0.000 nZ-1.000 E2114.78 F3600
G1 X279.41 Y570.51 Z1.20 nX0.000 nY0.000 nZ-1.000 E2128.88 F3600
G1 X281.93 Y577.14 Z1.20 nX0.000 nY0.000 nZ-1.000 E2142.99 F3600
G1 X285.35 Y583.34 Z1.20 nX0.000 nY0.000 nZ-1.000 E2157.09 F3600
G1 X289.62 Y589.01 Z1.20 nX0.000 nY0.000 nZ-1.000 E2171.19 F3600
G1 X294.64 Y594.01 Z1.20 nX0.000 nY0.000 nZ-1.000 E2185.30 F3600
G1 X300.32 Y598.26 Z1.20 nX0.000 nY0.000 nZ-1.000 E2199.40 F3600
G1 X306.53 Y601.66 Z1.20 nX0.000 nY0.000 nZ-1.000 E2213.50 F3600
G1 X313.17 Y604.15 Z1.20 nX0.000 nY0.000 nZ-1.000 E2227.60 F3600
G1 X317.25 Y605.06 Z1.20 nX0.000 nY0.000 nZ-1.000 E2235.92 F3600
G1 X320.09 Y605.69 Z1.20 nX0.000 nY0.000 nZ-1.000 E2241.71 F3600
G1 X327.16 Y606.23 Z1.20 nX0.000 nY0.000 nZ-1.000 E2255.81 F3600
;Layer 2
G0 X471.34 Y501.23 Z2.20 nX0.000 nY0.000 nZ-1.000 F21000
G1 X471.34 Y501.23 Z2.20 nX0.000 nY0.000 nZ-1.000 E2255.81 F3600
G1 X333.58 Y501.23 Z2.20 nX0.000 nY0.000 nZ-1.000 E2529.88 F3600
G1 X326.13 Y500.90 Z2.20 nX0.000 nY0.000 nZ-1.000 E2544.72 F3600
G1 X318.70 Y501.59 Z2.20 nX0.000 nY0.000 nZ-1.000 E2559.56 F3600
G1 X311.43 Y503.27 Z2.20 nX0.000 nY0.000 nZ-1.000 E2574.40 F3600
G1 X304.46 Y505.91 Z2.20 nX0.000 nY0.000 nZ-1.000 E2589.24 F3600
G1 X297.90 Y509.47 Z2.20 nX0.000 nY0.000 nZ-1.000 E2604.08 F3600
G1 X291.89 Y513.88 Z2.20 nX0.000 nY0.000 nZ-1.000 E2618.92 F3600
G1 X286.53 Y519.06 Z2.20 nX0.000 nY0.000 nZ-1.000 E2633.76 F3600
G1 X281.91 Y524.92 Z2.20 nX0.000 nY0.000 nZ-1.000 E2648.60 F3600
G1 X278.13 Y531.35 Z2.20 nX0.000 nY0.000 nZ-1.000 E2663.44 F3600
G1 X275.24 Y538.23 Z2.20 nX0.000 nY0.000 nZ-1.000 E2678.28 F3600
G1 X273.32 Y545.44 Z2.20 nX0.000 nY0.000 nZ-1.000 E2693.12 F3600
G1 X272.38 Y552.84 Z2.20 nX0.000 nY0.000 nZ-1.000 E2707.96 F3600
G1 X272.45 Y560.29 Z2.20 nX0.000 nY0.000 nZ-1.000 E2722.80 F3600
G1 X273.52 Y567.68 Z2.20 nX0.000 nY0.000 nZ-1.000 E2737.64 F3600
G1 X275.58 Y574.84 Z2.20 nX0.000 nY0.000 nZ-1.000 E2752.48 F3600
G1 X278.59 Y581.67 Z2.20 nX0.000 nY0.000 nZ-1.000 E2767.32 F3600
G1 X282.49 Y588.03 Z2.20 nX0.000 nY0.000 nZ-1.000 E2782.16 F3600
G1 X287.21 Y593.80 Z2.20 nX0.000 nY0.000 nZ-1.000 E2797.00 F3600
G1 X292.67 Y598.88 Z2.20 nX0.000 nY0.000 nZ-1.000 E2811.84 F3600
G1 X298.77 Y603.18 Z2.20 nX0.000 nY0.000 nZ-1.000 E2826.68 F3600
G1 X305.38 Y606.62 Z2.20 nX0.000 nY0.000 nZ-1.000 E2841.52 F3600
G1 X312.41 Y609.14 Z2.20 nX0.000 nY0.000 nZ-1.000 E2856.36 F3600
G1 X319.70 Y610.68 Z2.20 nX0.000 nY0.000 nZ-1.000 E2871.20 F3600
G1 X327.14 Y611.23 Z2.20 nX0.000 nY0.000 nZ-1.000 E2886.04 F3600
G1 X332.16 Y606.23 Z2.20 nX0.000 nY0.000 nZ-1.000 E2900.13 F3600
G1 X477.46 Y606.23 Z2.20 nX0.000 nY0.000 nZ-1.000 E3189.20 F3600
G1 X484.54 Y605.73 Z2.20 nX0.000 nY0.000 nZ-1.000 E3203.33 F3600
G1 X491.48 Y604.23 Z2.20 nX0.000 nY0.000 nZ-1.000 E3217.46 F3600
G1 X498.14 Y601.77 Z2.20 nX0.000 nY0.000 nZ-1.000 E3231.59 F3600
G1 X504.39 Y598.39 Z2.20 nX0.000 nY0.000 nZ-1.000 E3245.71 F3600
G1 X510.09 Y594.16 Z2.20 nX0.000 nY0.000 nZ-1.000 E3259.84 F3600
G1 X515.15 Y589.17 Z2.20 nX0.000 nY0.000 nZ-1.000 E3273.97 F3600
G1 X519.44 Y583.52 Z2.20 nX0.000 nY0.000 nZ-1.000 E3288.10 F3600
G1 X522.90 Y577.32 Z2.20 nX0.000 nY0.000 nZ-1.000 E3302.22 F3600
G1 X525.45 Y570.69 Z2.20 nX0.000 nY0.000 nZ-1.000 E3316.35 F3600
G1 X527.03 Y563.77 Z2.20 nX0.000 nY0.000 nZ-1.000 E3330.48 F3600
G1 X527.62 Y556.69 Z2.20 nX0.000 nY0.000 nZ-1.000 E3344.61 F3600
G1 X527.21 Y549.60 Z2.20 nX0.000 nY0.000 nZ-1.000 E3358.74 F3600
G1 X525.80 Y542.64 Z2.20 nX0.000 nY0.000 nZ-1.000 E3372.86 F3600
G1 X523.42 Y535.95 Z2.20 nX0.000 nY0.000 nZ-1.000 E3386.99 F3600
G1 X520.12 Y529.66 Z2.20 nX0.000 nY0.000 nZ-1.000 E3401.12 F3600
G1 X515.97 Y523.90 Z2.20 nX0.000 nY0.000 nZ-1.000 E3415.25 F3600
G1 X511.04 Y518.79 Z2.20 nX0.000 nY0.000 nZ-1.000 E3429.37 F3600
G1 X505.44 Y514.42 Z2.20 nX0.000 nY0.000 nZ-1.000 E3443.50 F3600
G1 X499.28 Y510.89 Z2.20 nX0.000 nY0.000 nZ-1.000 E3457.63 F3600
G1 X492.69 Y508.26 Z2.20 nX0.000 nY0.000 nZ-1.000 E3471.76 F3600
G1 X485.78 Y506.59 Z2.20 nX0.000 nY0.000 nZ-1.000 E3485.88 F3600
G1 X478.72 Y505.90 Z2.20 nX0.000 nY0.000 nZ-1.000 E3500.01 F3600
G1 X471.62 Y506.23 Z2.20 nX0.000 nY0.000 nZ-1.000 E3514.14 F3600
G1 X333.30 Y506.23 Z2.20 nX0.000 nY0.000 nZ-1.000 E3789.35 F3600
G1 X326.21 Y505.90 Z2.20 nX0.000 nY0.000 nZ-1.000 E3803.45 F3600
G1 X319.16 Y506.58 Z2.20 nX0.000 nY0.000 nZ-1.000 E3817.55 F3600
G1 X312.27 Y508.24 Z2.20 nX0.000 nY0.000 nZ-1.000 E3831.66 F3600
G1 X305.68 Y510.86 Z2.20 nX0.000 nY0.000 nZ-1.000 E3845.76 F3600
G1 X299.53 Y514.38 Z2.20 nX0.000 nY0.000 nZ-1.000 E3859.86 F3600
G1 X293.93 Y518.73 Z2.20 nX0.000 nY0.000 nZ-1.000 E3873.96 F3600
G1 X289.01 Y523.83 Z2.20 nX0.000 nY0.000 nZ-1.000 E3888.07 F3600
G1 X284.85 Y529.57 Z2.20 nX0.000 nY0.000 nZ-1.000 E3902.17 F3600
G1 X281.54 Y535.84 Z2.20 nX0.000 nY0.000 nZ-1.000 E3916.27 F3600
G1 X279.15 Y542.51 Z2.20 nX0.000 nY0.000 nZ-1.000 E3930.38 F3600
G1 X277.72 Y549.46 Z2.20 nX0.000 nY0.000 nZ-1.000 E3944.48 F3600
G1 X277.29 Y556.53 Z2.20 nX0.000 nY0.000 nZ-1.000 E3958.58 F3600
G1 X277.85 Y563.60 Z2.20 nX0.000 nY0.000 nZ-1.000 E3972.69 F3600
G1 X279.41 Y570.51 Z2.20 nX0.000 nY0.000 nZ-1.000 E3986.79 F3600
G1 X281.93 Y577.14 Z2.20 nX0.000 nY0.000 nZ-1.000 E4000.89 F3600
G1 X285.35 Y583.34 Z2.20 nX0.000 nY0.000 nZ-1.000 E4014.99 F3600
G1 X289.62 Y589.01 Z2.20 nX0.000 nY0.000 nZ-1.000 E4029.10 F3600
G1 X294.64 Y594.01 Z2.20 nX0.000 nY0.000 nZ-1.000 E4043.20 F3600
G1 X300.32 Y598.26 Z2.20 nX0.000 nY0.000 nZ-1.000 E4057.30 F3600
G1 X306.53 Y601.66 Z2.20 nX0.000 nY0.000 nZ-1.000 E4071.41 F3600
G1 X313.17 Y604.15 Z2.20 nX0.000 nY0.000 nZ-1.000 E4085.51 F3600
G1 X317.25 Y605.06 Z2.20 nX0.000 nY0.000 nZ-1.000 E4093.82 F3600
G1 X320.09 Y605.69 Z2.20 nX0.000 nY0.000 nZ-1.000 E4099.61 F3600
G1 X327.16 Y606.23 Z2.20 nX0.000 nY0.000 nZ-1.000 E4113.71 F3600
;Layer 3
G0 X471.34 Y501.23 Z3.20 nX0.000 nY0.000 nZ-1.000 F21000
G1 X471.34 Y501.23 Z3.20 nX0.000 nY0.000 nZ-1.000 E4113.71 F3600
G1 X333.58 Y501.23 Z3.20 nX0.000 nY0.000 nZ-1.000 E4387.79 F3600
G1 X326.13 Y500.90 Z3.20 nX0.000 nY0.000 nZ-1.000 E4402.63 F3600
G1 X318.70 Y501.59 Z3.20 nX0.000 nY0.000 nZ-1.000 E4417.47 F3600
G1 X311.43 Y503.27 Z3.20 nX0.000 nY0.000 nZ-1.000 E4432.31 F3600
G1 X304.46 Y505.91 Z3.20 nX0.000 nY0.000 nZ-1.000 E4447.15 F3600
G1 X297.90 Y509.47 Z3.20 nX0.000 nY0.000 nZ-1.000 E4461.99 F3600
G1 X291.89 Y513.88 Z3.20 nX0.000 nY0.000 nZ-1.000 E4476.83 F3600
G1 X286.53 Y519.06 Z3.20 nX0.000 nY0.000 nZ-1.000 E4491.67 F3600
G1 X281.91 Y524.92 Z3.20 nX0.000 nY0.000 nZ-1.000 E4506.51 F3600
G1 X278.13 Y531.35 Z3.20 nX0.000 nY0.000 nZ-1.000 E4521.34 F3600
G1 X275.24 Y538.23 Z3.20 nX0.000 nY0.000 nZ-1.000 E4536.18 F3600
G1 X273.32 Y545.44 Z3.20 nX0.000 nY0.000 nZ-1.000 E4551.02 F3600
G1 X272.38 Y552.84 Z3.20 nX0.000 nY0.000 nZ-1.000 E4565.86 F3600
G1 X272.45 Y560.29 Z3.20 nX0.000 nY0.000 nZ-1.000 E4580.70 F3600
G1 X273.52 Y567.68 Z3.20 nX0.000 nY0.000 nZ-1.000 E4595.54 F3600
G1 X275.58 Y574.84 Z3.20 nX0.000 nY0.000 nZ-1.000 E4610.38 F3600
G1 X278.59 Y581.67 Z3.20 nX0.000 nY0.000 nZ-1.000 E4625.22 F3600
G1 X282.49 Y588.03 Z3.20 nX0.000 nY0.000 nZ-1.000 E4640.06 F3600
G1 X287.21 Y593.80 Z3.20 nX0.000 nY0.000 nZ-1.000 E4654.90 F3600
G1 X292.67 Y598.88 Z3.20 nX0.000 nY0.000 nZ-1.000 E4669.74 F3600
G1 X298.77 Y603.18 Z3.20 nX0.000 nY0.000 nZ-1.000 E4684.58 F3600
G1 X305.38 Y606.62 Z3.20 nX0.000 nY0.000 nZ-1.000 E4699.42 F3600
G1 X312.41 Y609.14 Z3.20 nX0.000 nY0.000 nZ-1.000 E4714.26 F3600
G1 X319.70 Y610.68 Z3.20 nX0.000 nY0.000 nZ-1.000 E4729.10 F3600
G1 X327.14 Y611.23 Z3.20 nX0.000 nY0.000 nZ-1.000 E4743.94 F3600
G1 X332.16 Y606.23 Z3.20 nX0.000 nY0.000 nZ-1.000 E4758.03 F3600
G1 X477.46 Y606.23 Z3.20 nX0.000 nY0.000 nZ-1.000 E5047.11 F3600
G1 X484.54 Y605.73 Z3.20 nX0.000 nY0.000 nZ-1.000 E5061.23 F3600
G1 X491.48 Y604.23 Z3.20 nX0.000 nY0.000 nZ-1.000 E5075.36 F3600
G1 X498.14 Y601.77 Z3.20 nX0.000 nY0.000 nZ-1.000 E5089.49 F3600
G1 X504.39 Y598.39 Z3.20 nX0.000 nY0.000 nZ-1.000 E5103.62 F3600
G1 X510.09 Y594.16 Z3.20 nX0.000 nY0.000 nZ-1.000 E5117.74 F3600
G1 X515.15 Y589.17 Z3.20 nX0.000 nY0.000 nZ-1.000 E5131.87 F3600
G1 X519.44 Y583.52 Z3.20 nX0.000 nY0.000 nZ-1.000 E5146.00 F3600
G1 X522.90 Y577.32 Z3.20 nX0.000 nY0.000 nZ-1.000 E5160.13 F3600
G1 X525.45 Y570.69 Z3.20 nX0.000 nY0.000 nZ-1.000 E5174.26 F3600
G1 X527.03 Y563.77 Z3.20 nX0.000 nY0.000 nZ-1.000 E5188.38 F3600
G1 X527.62 Y556.69 Z3.20 nX0.000 nY0.000 nZ-1.000 E5202.51 F3600
G1 X527.21 Y549.60 Z3.20 nX0.000 nY0.000 nZ-1.000 E5216.64 F3600
G1 X525.80 Y542.64 Z3.20 nX0.000 nY0.000 nZ-1.000 E5230.77 F3600
G1 X523.42 Y535.95 Z3.20 nX0.000 nY0.000 nZ-1.000 E5244.89 F3600
G1 X520.12 Y529.66 Z3.20 nX0.000 nY0.000 nZ-1.000 E5259.02 F3600
G1 X515.97 Y523.90 Z3.20 nX0.000 nY0.000 nZ-1.000 E5273.15 F3600
G1 X511.04 Y518.79 Z3.20 nX0.000 nY0.000 nZ-1.000 E5287.28 F3600
G1 X505.44 Y514.42 Z3.20 nX0.000 nY0.000 nZ-1.000 E5301.40 F3600
G1 X499.28 Y510.89 Z3.20 nX0.000 nY0.000 nZ-1.000 E5315.53 F3600
G1 X492.69 Y508.26 Z3.20 nX0.000 nY0.000 nZ-1.000 E5329.66 F3600
G1 X485.78 Y506.59 Z3.20 nX0.000 nY0.000 nZ-1.000 E5343.79 F3600
G1 X478.72 Y505.90 Z3.20 nX0.000 nY0.000 nZ-1.000 E5357.92 F3600
G1 X471.62 Y506.23 Z3.20 nX0.000 nY0.000 nZ-1.000 E5372.04 F3600
G1 X333.30 Y506.23 Z3.20 nX0.000 nY0.000 nZ-1.000 E5647.25 F3600
G1 X326.21 Y505.90 Z3.20 nX0.000 nY0.000 nZ-1.000 E5661.35 F3600
G1 X319.16 Y506.58 Z3.20 nX0.000 nY0.000 nZ-1.000 E5675.46 F3600
G1 X312.27 Y508.24 Z3.20 nX0.000 nY0.000 nZ-1.000 E5689.56 F3600
G1 X305.68 Y510.86 Z3.20 nX0.000 nY0.000 nZ-1.000 E5703.66 F3600
G1 X299.53 Y514.38 Z3.20 nX0.000 nY0.000 nZ-1.000 E5717.77 F3600
G1 X293.93 Y518.73 Z3.20 nX0.000 nY0.000 nZ-1.000 E5731.87 F3600
G1 X289.01 Y523.83 Z3.20 nX0.000 nY0.000 nZ-1.000 E5745.97 F3600
G1 X284.85 Y529.57 Z3.20 nX0.000 nY0.000 nZ-1.000 E5760.07 F3600
G1 X281.54 Y535.84 Z3.20 nX0.000 nY0.000 nZ-1.000 E5774.18 F3600
G1 X279.15 Y542.51 Z3.20 nX0.000 nY0.000 nZ-1.000 E5788.28 F3600
G1 X277.72 Y549.46 Z3.20 nX0.000 nY0.000 nZ-1.000 E5802.38 F3600
G1 X277.29 Y556.53 Z3.20 nX0.000 nY0.000 nZ-1.000 E5816.49 F3600
G1 X277.85 Y563.60 Z3.20 nX0.000 nY0.000 nZ-1.000 E5830.59 F3600
G1 X279.41 Y570.51 Z3.20 nX0.000 nY0.000 nZ-1.000 E5844.69 F3600
G1 X281.93 Y577.14 Z3.20 nX0.000 nY0.000 nZ-1.000 E5858.79 F3600
G1 X285.35 Y583.34 Z3.20 nX0.000 nY0.000 nZ-1.000 E5872.90 F3600
G1 X289.62 Y589.01 Z3.20 nX0.000 nY0.000 nZ-1.000 E5887.00 F3600
G1 X294.64 Y594.01 Z3.20 nX0.000 nY0.000 nZ-1.000 E5901.10 F3600
G1 X300.32 Y598.26 Z3.20 nX0.000 nY0.000 nZ-1.000 E5915.21 F3600
G1 X306.53 Y601.66 Z3.20 nX0.000 nY0.000 nZ-1.000 E5929.31 F3600
G1 X313.17 Y604.15 Z3.20 nX0.000 nY0.000 nZ-1.000 E5943.41 F3600
G1 X317.25 Y605.06 Z3.20 nX0.000 nY0.000 nZ-1.000 E5951.72 F3600
G1 X320.09 Y605.69 Z3.20 nX0.000 nY0.000 nZ-1.000 E5957.51 F3600
G1 X327.16 Y606.23 Z3.20 nX0.000 nY0.000 nZ-1.000 E5971.62 F3600
;Layer 4
G0 X471.34 Y501.23 Z4.20 nX0.000 nY0.000 nZ-1.000 F21000
G1 X471.34 Y501.23 Z4.20 nX0.000 nY0.000 nZ-1.000 E5971.62 F3600
G1 X333.58 Y501.23 Z4.20 nX0.000 nY0.000 nZ-1.000 E6245.69 F3600
G1 X326.13 Y500.90 Z4.20 nX0.000 nY0.000 nZ-1.000 E6260.53 F3600
G1 X318.70 Y501.59 Z4.20 nX0.000 nY0.000 nZ-1.000 E6275.37 F3600
G1 X311.43 Y503.27 Z4.20 nX0.000 nY0.000 nZ-1.000 E6290.21 F3600
G1 X304.46 Y505.91 Z4.20 nX0.000 nY0.000 nZ-1.000 E6305.05 F3600
G1 X297.90 Y509.47 Z4.20 nX0.000 nY0.000 nZ-1.000 E6319.89 F3600
G1 X291.89 Y513.88 Z4.20 nX0.000 nY0.000 nZ-1.000 E6334.73 F3600
G1 X286.53 Y519.06 Z4.20 nX0.000 nY0.000 nZ-1.000 E6349.57 F3600
G1 X281.91 Y524.92 Z4.20 nX0.000 nY0.000 nZ-1.000 E6364.41 F3600
G1 X278.13 Y531.35 Z4.20 nX0.000 nY0.000 nZ-1.000 E6379.25 F3600
G1 X275.24 Y538.23 Z4.20 nX0.000 nY0.000 nZ-1.000 E6394.09 F3600
G1 X273.32 Y545.44 Z4.20 nX0.000 nY0.000 nZ-1.000 E6408.93 F3600
G1 X272.38 Y552.84 Z4.20 nX0.000 nY0.000 nZ-1.000 E6423.77 F3600
G1 X272.45 Y560.29 Z4.20 nX0.000 nY0.000 nZ-1.000 E6438.61 F3600
G1 X273.52 Y567.68 Z4.20 nX0.000 nY0.000 nZ-1.000 E6453.45 F3600
G1 X275.58 Y574.84 Z4.20 nX0.000 nY0.000 nZ-1.000 E6468.29 F3600
G1 X278.59 Y581.67 Z4.20 nX0.000 nY0.000 nZ-1.000 E6483.13 F3600
G1 X282.49 Y588.03 Z4.20 nX0.000 nY0.000 nZ-1.000 E6497.97 F3600
G1 X287.21 Y593.80 Z4.20 nX0.000 nY0.000 nZ-1.000 E6512.81 F3600
G1 X292.67 Y598.88 Z4.20 nX0.000 nY0.000 nZ-1.000 E6527.65 F3600
G1 X298.77 Y603.18 Z4.20 nX0.000 nY0.000 nZ-1.000 E6542.48 F3600
G1 X305.38 Y606.62 Z4.20 nX0.000 nY0.000 nZ-1.000 E6557.32 F3600
G1 X312.41 Y609.14 Z4.20 nX0.000 nY0.000 nZ-1.000 E6572.16 F3600
G1 X319.70 Y610.68 Z4.20 nX0.000 nY0.000 nZ-1.000 E6587.00 F3600
G1 X327.14 Y611.23 Z4.20 nX0.000 nY0.000 nZ-1.000 E6601.84 F3600
G1 X332.16 Y606.23 Z4.20 nX0.000 nY0.000 nZ-1.000 E6615.93 F3600
G1 X477.46 Y606.23 Z4.20 nX0.000 nY0.000 nZ-1.000 E6905.01 F3600
G1 X484.54 Y605.73 Z4.20 nX0.000 nY0.000 nZ-1.000 E6919.14 F3600
G1 X491.48 Y604.23 Z4.20 nX0.000 nY0.000 nZ-1.000 E6933.26 F3600
G1 X498.14 Y601.77 Z4.20 nX0.000 nY0.000 nZ-1.000 E6947.39 F3600
G1 X504.39 Y598.39 Z4.20 nX0.000 nY0.000 nZ-1.000 E6961.52 F3600
G1 X510.09 Y594.16 Z4.20 nX0.000 nY0.000 nZ-1.000 E6975.65 F3600
G1 X515.15 Y589.17 Z4.20 nX0.000 nY0.000 nZ-1.000 E6989.78 F3600
G1 X519.44 Y583.52 Z4.20 nX0.000 nY0.000 nZ-1.000 E7003.90 F3600
G1 X522.90 Y577.32 Z4.20 nX0.000 nY0.000 nZ-1.000 E7018.03 F3600
G1 X525.45 Y570.69 Z4.20 nX0.000 nY0.000 nZ-1.000 E7032.16 F3600
G1 X527.03 Y563.77 Z4.20 nX0.000 nY0.000 nZ-1.000 E7046.29 F3600
G1 X527.62 Y556.69 Z4.20 nX0.000 nY0.000 nZ-1.000 E7060.41 F3600
G1 X527.21 Y549.60 Z4.20 nX0.000 nY0.000 nZ-1.000 E7074.54 F3600
G1 X525.80 Y542.64 Z4.20 nX0.000 nY0.000 nZ-1.000 E7088.67 F3600
G1 X523.42 Y535.95 Z4.20 nX0.000 nY0.000 nZ-1.000 E7102.80 F3600
G1 X520.12 Y529.66 Z4.20 nX0.000 nY0.000 nZ-1.000 E7116.92 F3600
G1 X515.97 Y523.90 Z4.20 nX0.000 nY0.000 nZ-1.000 E7131.05 F3600
G1 X511.04 Y518.79 Z4.20 nX0.000 nY0.000 nZ-1.000 E7145.18 F3600
G1 X505.44 Y514.42 Z4.20 nX0.000 nY0.000 nZ-1.000 E7159.31 F3600
G1 X499.28 Y510.89 Z4.20 nX0.000 nY0.000 nZ-1.000 E7173.44 F3600
G1 X492.69 Y508.26 Z4.20 nX0.000 nY0.000 nZ-1.000 E7187.56 F3600
G1 X485.78 Y506.59 Z4.20 nX0.000 nY0.000 nZ-1.000 E7201.69 F3600
G1 X478.72 Y505.90 Z4.20 nX0.000 nY0.000 nZ-1.000 E7215.82 F3600
G1 X471.62 Y506.23 Z4.20 nX0.000 nY0.000 nZ-1.000 E7229.95 F3600
G1 X333.30 Y506.23 Z4.20 nX0.000 nY0.000 nZ-1.000 E7505.15 F3600
G1 X326.21 Y505.90 Z4.20 nX0.000 nY0.000 nZ-1.000 E7519.26 F3600
G1 X319.16 Y506.58 Z4.20 nX0.000 nY0.000 nZ-1.000 E7533.36 F3600
G1 X312.27 Y508.24 Z4.20 nX0.000 nY0.000 nZ-1.000 E7547.46 F3600
G1 X305.68 Y510.86 Z4.20 nX0.000 nY0.000 nZ-1.000 E7561.57 F3600
G1 X299.53 Y514.38 Z4.20 nX0.000 nY0.000 nZ-1.000 E7575.67 F3600
G1 X293.93 Y518.73 Z4.20 nX0.000 nY0.000 nZ-1.000 E7589.77 F3600
G1 X289.01 Y523.83 Z4.20 nX0.000 nY0.000 nZ-1.000 E7603.87 F3600
G1 X284.85 Y529.57 Z4.20 nX0.000 nY0.000 nZ-1.000 E7617.98 F3600
G1 X281.54 Y535.84 Z4.20 nX0.000 nY0.000 nZ-1.000 E7632.08 F3600
G1 X279.15 Y542.51 Z4.20 nX0.000 nY0.000 nZ-1.000 E7646.18 F3600
G1 X277.72 Y549.46 Z4.20 nX0.000 nY0.000 nZ-1.000 E7660.29 F3600
G1 X277.29 Y556.53 Z4.20 nX0.000 nY0.000 nZ-1.000 E7674.39 F3600
G1 X277.85 Y563.60 Z4.20 nX0.000 nY0.000 nZ-1.000 E7688.49 F3600
G1 X279.41 Y570.51 Z4.20 nX0.000 nY0.000 nZ-1.000 E7702.59 F3600
G1 X281.93 Y577.14 Z4.20 nX0.000 nY0.000 nZ-1.000 E7716.70 F3600
G1 X285.35 Y583.34 Z4.20 nX0.000 nY0.000 nZ-1.000 E7730.80 F3600
G1 X289.62 Y589.01 Z4.20 nX0.000 nY0.000 nZ-1.000 E7744.90 F3600
G1 X294.64 Y594.01 Z4.20 nX0.000 nY0.000 nZ-1.000 E7759.01 F3600
G1 X300.32 Y598.26 Z4.20 nX0.000 nY0.000 nZ-1.000 E7773.11 F3600
G1 X306.53 Y601.66 Z4.20 nX0.000 nY0.000 nZ-1.000 E7787.21 F3600
G1 X313.17 Y604.15 Z4.20 nX0.000 nY0.000 nZ-1.000 E7801.31 F3600
G1 X317.25 Y605.06 Z4.20 nX0.000 nY0.000 nZ-1.000 E7809.62 F3600
G1 X320.09 Y605.69 Z4.20 nX0.000 nY0.000 nZ-1.000 E7815.42 F3600
G1 X327.16 Y606.23 Z4.20 nX0.000 nY0.000 nZ-1.000 E7829.52 F3600
;Layer 5
G0 X471.34 Y501.23 Z5.20 nX0.000 nY0.000 nZ-1.000 F21000
G1 X471.34 Y501.23 Z5.20 nX0.000 nY0.000 nZ-1.000 E7829.52 F3600
G1 X333.58 Y501.23 Z5.20 nX0.000 nY0.000 nZ-1.000 E8103.59 F3600
G1 X326.13 Y500.90 Z5.20 nX0.000 nY0.000 nZ-1.000 E8118.43 F3600
G1 X318.70 Y501.59 Z5.20 nX0.000 nY0.000 nZ-1.000 E8133.27 F3600
G1 X311.43 Y503.27 Z5.20 nX0.000 nY0.000 nZ-1.000 E8148.11 F3600
G1 X304.46 Y505.91 Z5.20 nX0.000 nY0.000 nZ-1.000 E8162.95 F3600
G1 X297.90 Y509.47 Z5.20 nX0.000 nY0.000 nZ-1.000 E8177.79 F3600
G1 X291.89 Y513.88 Z5.20 nX0.000 nY0.000 nZ-1.000 E8192.63 F3600
G1 X286.53 Y519.06 Z5.20 nX0.000 nY0.000 nZ-1.000 E8207.47 F3600
G1 X281.91 Y524.92 Z5.20 nX0.000 nY0.000 nZ-1.000 E8222.31 F3600
G1 X278.13 Y531.35 Z5.20 nX0.000 nY0.000 nZ-1.000 E8237.15 F3600
G1 X275.24 Y538.23 Z5.20 nX0.000 nY0.000 nZ-1.000 E8251.99 F3600
G1 X273.32 Y545.44 Z5.20 nX0.000 nY0.000 nZ-1.000 E8266.83 F3600
G1 X272.38 Y552.84 Z5.20 nX0.000 nY0.000 nZ-1.000 E8281.67 F3600
G1 X272.45 Y560.29 Z5.20 nX0.000 nY0.000 nZ-1.000 E8296.51 F3600
G1 X273.52 Y567.68 Z5.20 nX0.000 nY0.000 nZ-1.000 E8311.35 F3600
G1 X275.58 Y574.84 Z5.20 nX0.000 nY0.000 nZ-1.000 E8326.19 F3600
G1 X278.59 Y581.67 Z5.20 nX0.000 nY0.000 nZ-1.000 E8341.03 F3600
G1 X282.49 Y588.03 Z5.20 nX0.000 nY0.000 nZ-1.000 E8355.87 F3600
G1 X287.21 Y593.80 Z5.20 nX0.000 nY0.000 nZ-1.000 E8370.71 F3600
G1 X292.67 Y598.88 Z5.20 nX0.000 nY0.000 nZ-1.000 E8385.55 F3600
G1 X298.77 Y603.18 Z5.20 nX0.000 nY0.000 nZ-1.000 E8400.39 F3600
G1 X305.38 Y606.62 Z5.20 nX0.000 nY0.000 nZ-1.000 E8415.23 F3600
G1 X312.41 Y609.14 Z5.20 nX0.000 nY0.000 nZ-1.000 E8430.07 F3600
G1 X319.70 Y610.68 Z5.20 nX0.000 nY0.000 nZ-1.000 E8444.91 F3600
G1 X327.14 Y611.23 Z5.20 nX0.000 nY0.000 nZ-1.000 E8459.75 F3600
G1 X332.16 Y606.23 Z5.20 nX0.000 nY0.000 nZ-1.000 E8473.84 F3600
G1 X477.46 Y606.23 Z5.20 nX0.000 nY0.000 nZ-1.000 E8762.91 F3600
G1 X484.54 Y605.73 Z5.20 nX0.000 nY0.000 nZ-1.000 E8777.04 F3600
G1 X491.48 Y604.23 Z5.20 nX0.000 nY0.000 nZ-1.000 E8791.17 F3600
G1 X498.14 Y601.77 Z5.20 nX0.000 nY0.000 nZ-1.000 E8805.30 F3600
G1 X504.39 Y598.39 Z5.20 nX0.000 nY0.000 nZ-1.000 E8819.42 F3600
G1 X510.09 Y594.16 Z5.20 nX0.000 nY0.000 nZ-1.000 E8833.55 F3600
G1 X515.15 Y589.17 Z5.20 nX0.000 nY0.000 nZ-1.000 E8847.68 F3600
G1 X519.44 Y583.52 Z5.20 nX0.000 nY0.000 nZ-1.000 E8861.81 F3600
G1 X522.90 Y577.32 Z5.20 nX0.000 nY0.000 nZ-1.000 E8875.93 F3600
G1 X525.45 Y570.69 Z5.20 nX0.000 nY0.000 nZ-1.000 E8890.06 F3600
G1 X527.03 Y563.77 Z5.20 nX0.000 nY0.000 nZ-1.000 E8904.19 F3600
G1 X527.62 Y556.69 Z5.20 nX0.000 nY0.000 nZ-1.000 E8918.32 F3600
G1 X527.21 Y549.60 Z5.20 nX0.000 nY0.000 nZ-1.000 E8932.44 F3600
G1 X525.80 Y542.64 Z5.20 nX0.000 nY0.000 nZ-1.000 E8946.57 F3600
G1 X523.42 Y535.95 Z5.20 nX0.000 nY0.000 nZ-1.000 E8960.70 F3600
G1 X520.12 Y529.66 Z5.20 nX0.000 nY0.000 nZ-1.000 E8974.83 F3600
G1 X515.97 Y523.90 Z5.20 nX0.000 nY0.000 nZ-1.000 E8988.96 F3600
G1 X511.04 Y518.79 Z5.20 nX0.000 nY0.000 nZ-1.000 E9003.08 F3600
G1 X505.44 Y514.42 Z5.20 nX0.000 nY0.000 nZ-1.000 E9017.21 F3600
G1 X499.28 Y510.89 Z5.20 nX0.000 nY0.000 nZ-1.000 E9031.34 F3600
G1 X492.69 Y508.26 Z5.20 nX0.000 nY0.000 nZ-1.000 E9045.47 F3600
G1 X485.78 Y506.59 Z5.20 nX0.000 nY0.000 nZ-1.000 E9059.59 F3600
G1 X478.72 Y505.90 Z5.20 nX0.000 nY0.000 nZ-1.000 E9073.72 F3600
G1 X471.62 Y506.23 Z5.20 nX0.000 nY0.000 nZ-1.000 E9087.85 F3600
G1 X333.30 Y506.23 Z5.20 nX0.000 nY0.000 nZ-1.000 E9363.06 F3600
G1 X326.21 Y505.90 Z5.20 nX0.000 nY0.000 nZ-1.000 E9377.16 F3600
G1 X319.16 Y506.58 Z5.20 nX0.000 nY0.000 nZ-1.000 E9391.26 F3600
G1 X312.27 Y508.24 Z5.20 nX0.000 nY0.000 nZ-1.000 E9405.37 F3600
G1 X305.68 Y510.86 Z5.20 nX0.000 nY0.000 nZ-1.000 E9419.47 F3600
G1 X299.53 Y514.38 Z5.20 nX0.000 nY0.000 nZ-1.000 E9433.57 F3600
G1 X293.93 Y518.73 Z5.20 nX0.000 nY0.000 nZ-1.000 E9447.67 F3600
G1 X289.01 Y523.83 Z5.20 nX0.000 nY0.000 nZ-1.000 E9461.78 F3600
G1 X284.85 Y529.57 Z5.20 nX0.000 nY0.000 nZ-1.000 E9475.88 F3600
G1 X281.54 Y535.84 Z5.20 nX0.000 nY0.000 nZ-1.000 E9489.98 F3600
G1 X279.15 Y542.51 Z5.20 nX0.000 nY0.000 nZ-1.000 E9504.09 F3600
G1 X277.72 Y549.46 Z5.20 nX0.000 nY0.000 nZ-1.000 E9518.19 F3600
G1 X277.29 Y556.53 Z5.20 nX0.000 nY0.000 nZ-1.000 E9532.29 F3600
G1 X277.85 Y563.60 Z5.20 nX0.000 nY0.000 nZ-1.000 E9546.39 F3600
G1 X279.41 Y570.51 Z5.20 nX0.000 nY0.000 nZ-1.000 E9560.50 F3600
G1 X281.93 Y577.14 Z5.20 nX0.000 nY0.000 nZ-1.000 E9574.60 F3600
G1 X285.35 Y583.34 Z5.20 nX0.000 nY0.000 nZ-1.000 E9588.70 F3600
G1 X289.62 Y589.01 Z5.20 nX0.000 nY0.000 nZ-1.000 E9602.81 F3600
G1 X294.64 Y594.01 Z5.20 nX0.000 nY0.000 nZ-1.000 E9616.91 F3600
G1 X300.32 Y598.26 Z5.20 nX0.000 nY0.000 nZ-1.000 E9631.01 F3600
G1 X306.53 Y601.66 Z5.20 nX0.000 nY0.000 nZ-1.000 E9645.11 F3600
G1 X313.17 Y604.15 Z5.20 nX0.000 nY0.000 nZ-1.000 E9659.22 F3600
G1 X317.25 Y605.06 Z5.20 nX0.000 nY0.000 nZ-1.000 E9667.53 F3600
G1 X320.09 Y605.69 Z5.20 nX0.000 nY0.000 nZ-1.000 E9673.32 F3600
G1 X327.16 Y606.23 Z5.20 nX0.000 nY0.000 nZ-1.000 E9687.42 F3600
;Layer 6
G0 X471.34 Y501.23 Z6.20 nX0.000 nY0.000 nZ-1.000 F21000
G1 X471.34 Y501.23 Z6.20 nX0.000 nY0.000 nZ-1.000 E9687.42 F3600
G1 X333.58 Y501.23 Z6.20 nX0.000 nY0.000 nZ-1.000 E9961.50 F3600
G1 X326.13 Y500.90 Z6.20 nX0.000 nY0.000 nZ-1.000 E9976.34 F3600
G1 X318.70 Y501.59 Z6.20 nX0.000 nY0.000 nZ-1.000 E9991.18 F3600
G1 X311.43 Y503.27 Z6.20 nX0.000 nY0.000 nZ-1.000 E10006.02 F3600
G1 X304.46 Y505.91 Z6.20 nX0.000 nY0.000 nZ-1.000 E10020.86 F3600
G1 X297.90 Y509.47 Z6.20 nX0.000 nY0.000 nZ-1.000 E10035.70 F3600
G1 X291.89 Y513.88 Z6.20 nX0.000 nY0.000 nZ-1.000 E10050.54 F3600
G1 X286.53 Y519.06 Z6.20 nX0.000 nY0.000 nZ-1.000 E10065.37 F3600
G1 X281.91 Y524.92 Z6.20 nX0.000 nY0.000 nZ-1.000 E10080.21 F3600
G1 X278.13 Y531.35 Z6.20 nX0.000 nY0.000 nZ-1.000 E10095.05 F3600
G1 X275.24 Y538.23 Z6.20 nX0.000 nY0.000 nZ-1.000 E10109.89 F3600
G1 X273.32 Y545.44 Z6.20 nX0.000 nY0.000 nZ-1.000 E10124.73 F3600
G1 X272.38 Y552.84 Z6.20 nX0.000 nY0.000 nZ-1.000 E10139.57 F3600
G1 X272.45 Y560.29 Z6.20 nX0.000 nY0.000 nZ-1.000 E10154.41 F3600
G1 X273.52 Y567.68 Z6.20 nX0.000 nY0.000 nZ-1.000 E10169.25 F3600
G1 X275.58 Y574.84 Z6.20 nX0.000 nY0.000 nZ-1.000 E10184.09 F3600
G1 X278.59 Y581.67 Z6.20 nX0.000 nY0.000 nZ-1.000 E10198.93 F3600
G1 X282.49 Y588.03 Z6.20 nX0.000 nY0.000 nZ-1.000 E10213.77 F3600
G1 X287.21 Y593.80 Z6.20 nX0.000 nY0.000 nZ-1.000 E10228.61 F3600
G1 X292.67 Y598.88 Z6.20 nX0.000 nY0.000 nZ-1.000 E10243.45 F3600
G1 X298.77 Y603.18 Z6.20 nX0.000 nY0.000 nZ-1.000 E10258.29 F3600
G1 X305.38 Y606.62 Z6.20 nX0.000 nY0.000 nZ-1.000 E10273.13 F3600
G1 X312.41 Y609.14 Z6.20 nX0.000 nY0.000 nZ-1.000 E10287.97 F3600
G1 X319.70 Y610.68 Z6.20 nX0.000 nY0.000 nZ-1.000 E10302.81 F3600
G1 X327.14 Y611.23 Z6.20 nX0.000 nY0.000 nZ-1.000 E10317.65 F3600
G1 X332.16 Y606.23 Z6.20 nX0.000 nY0.000 nZ-1.000 E10331.74 F3600
G1 X477.46 Y606.23 Z6.20 nX0.000 nY0.000 nZ-1.000 E10620.82 F3600
G1 X484.54 Y605.73 Z6.20 nX0.000 nY0.000 nZ-1.000 E10634.94 F3600
G1 X491.48 Y604.23 Z6.20 nX0.000 nY0.000 nZ-1.000 E10649.07 F3600
G1 X498.14 Y601.77 Z6.20 nX0.000 nY0.000 nZ-1.000 E10663.20 F3600
G1 X504.39 Y598.39 Z6.20 nX0.000 nY0.000 nZ-1.000 E10677.33 F3600
G1 X510.09 Y594.16 Z6.20 nX0.000 nY0.000 nZ-1.000 E10691.45 F3600
G1 X515.15 Y589.17 Z6.20 nX0.000 nY0.000 nZ-1.000 E10705.58 F3600
G1 X519.44 Y583.52 Z6.20 nX0.000 nY0.000 nZ-1.000 E10719.71 F3600
G1 X522.90 Y577.32 Z6.20 nX0.000 nY0.000 nZ-1.000 E10733.84 F3600
G1 X525.45 Y570.69 Z6.20 nX0.000 nY0.000 nZ-1.000 E10747.96 F3600
G1 X527.03 Y563.77 Z6.20 nX0.000 nY0.000 nZ-1.000 E10762.09 F3600
G1 X527.62 Y556.69 Z6.20 nX0.000 nY0.000 nZ-1.000 E10776.22 F3600
G1 X527.21 Y549.60 Z6.20 nX0.000 nY0.000 nZ-1.000 E10790.35 F3600
G1 X525.80 Y542.64 Z6.20 nX0.000 nY0.000 nZ-1.000 E10804.48 F3600
G1 X523.42 Y535.95 Z6.20 nX0.000 nY0.000 nZ-1.000 E10818.60 F3600
G1 X520.12 Y529.66 Z6.20 nX0.000 nY0.000 nZ-1.000 E10832.73 F3600
G1 X515.97 Y523.90 Z6.20 nX0.000 nY0.000 nZ-1.000 E10846.86 F3600
G1 X511.04 Y518.79 Z6.20 nX0.000 nY0.000 nZ-1.000 E10860.99 F3600
G1 X505.44 Y514.42 Z6.20 nX0.000 nY0.000 nZ-1.000 E10875.11 F3600
G1 X499.28 Y510.89 Z6.20 nX0.000 nY0.000 nZ-1.000 E10889.24 F3600
G1 X492.69 Y508.26 Z6.20 nX0.000 nY0.000 nZ-1.000 E10903.37 F3600
G1 X485.78 Y506.59 Z6.20 nX0.000 nY0.000 nZ-1.000 E10917.50 F3600
G1 X478.72 Y505.90 Z6.20 nX0.000 nY0.000 nZ-1.000 E10931.62 F3600
G1 X471.62 Y506.23 Z6.20 nX0.000 nY0.000 nZ-1.000 E10945.75 F3600
G1 X333.30 Y506.23 Z6.20 nX0.000 nY0.000 nZ-1.000 E11220.96 F3600
G1 X326.21 Y505.90 Z6.20 nX0.000 nY0.000 nZ-1.000 E11235.06 F3600
G1 X319.16 Y506.58 Z6.20 nX0.000 nY0.000 nZ-1.000 E11249.17 F3600
G1 X312.27 Y508.24 Z6.20 nX0.000 nY0.000 nZ-1.000 E11263.27 F3600
G1 X305.68 Y510.86 Z6.20 nX0.000 nY0.000 nZ-1.000 E11277.37 F3600
G1 X299.53 Y514.38 Z6.20 nX0.000 nY0.000 nZ-1.000 E11291.47 F3600
G1 X293.93 Y518.73 Z6.20 nX0.000 nY0.000 nZ-1.000 E11305.58 F3600
G1 X289.01 Y523.83 Z6.20 nX0.000 nY0.000 nZ-1.000 E11319.68 F3600
G1 X284.85 Y529.57 Z6.20 nX0.000 nY0.000 nZ-1.000 E11333.78 F3600
G1 X281.54 Y535.84 Z6.20 nX0.000 nY0.000 nZ-1.000 E11347.89 F3600
G1 X279.15 Y542.51 Z6.20 nX0.000 nY0.000 nZ-1.000 E11361.99 F3600
G1 X277.72 Y549.46 Z6.20 nX0.000 nY0.000 nZ-1.000 E11376.09 F3600
G1 X277.29 Y556.53 Z6.20 nX0.000 nY0.000 nZ-1.000 E11390.19 F3600
G1 X277.85 Y563.60 Z6.20 nX0.000 nY0.000 nZ-1.000 E11404.30 F3600
G1 X279.41 Y570.51 Z6.20 nX0.000 nY0.000 nZ-1.000 E11418.40 F3600
G1 X281.93 Y577.14 Z6.20 nX0.000 nY0.000 nZ-1.000 E11432.50 F3600
G1 X285.35 Y583.34 Z6.20 nX0.000 nY0.000 nZ-1.000 E11446.61 F3600
G1 X289.62 Y589.01 Z6.20 nX0.000 nY0.000 nZ-1.000 E11460.71 F3600
G1 X294.64 Y594.01 Z6.20 nX0.000 nY0.000 nZ-1.000 E11474.81 F3600
G1 X300.32 Y598.26 Z6.20 nX0.000 nY0.000 nZ-1.000 E11488.91 F3600
G1 X306.53 Y601.66 Z6.20 nX0.000 nY0.000 nZ-1.000 E11503.02 F3600
G1 X313.17 Y604.15 Z6.20 nX0.000 nY0.000 nZ-1.000 E11517.12 F3600
G1 X317.25 Y605.06 Z6.20 nX0.000 nY0.000 nZ-1.000 E11525.43 F3600
G1 X320.09 Y605.69 Z6.20 nX0.000 nY0.000 nZ-1.000 E11531.22 F3600
G1 X327.16 Y606.23 Z6.20 nX0.000 nY0.000 nZ-1.000 E11545.33 F3600
;Layer 7
G0 X471.34 Y501.23 Z7.20 nX0.000 nY0.000 nZ-1.000 F21000
G1 X471.34 Y501.23 Z7.20 nX0.000 nY0.000 nZ-1.000 E11545.33 F3600
G1 X333.58 Y501.23 Z7.20 nX0.000 nY0.000 nZ-1.000 E11819.40 F3600
G1 X326.13 Y500.90 Z7.20 nX0.000 nY0.000 nZ-1.000 E11834.24 F3600
G1 X318.70 Y501.59 Z7.20 nX0.000 nY0.000 nZ-1.000 E11849.08 F3600
G1 X311.43 Y503.27 Z7.20 nX0.000 nY0.000 nZ-1.000 E11863.92 F3600
G1 X304.46 Y505.91 Z7.20 nX0.000 nY0.000 nZ-1.000 E11878.76 F3600
G1 X297.90 Y509.47 Z7.20 nX0.000 nY0.000 nZ-1.000 E11893.60 F3600
G1 X291.89 Y513.88 Z7.20 nX0.000 nY0.000 nZ-1.000 E11908.44 F3600
G1 X286.53 Y519.06 Z7.20 nX0.000 nY0.000 nZ-1.000 E11923.28 F3600
G1 X281.91 Y524.92 Z7.20 nX0.000 nY0.000 nZ-1.000 E11938.12 F3600
G1 X278.13 Y531.35 Z7.20 nX0.000 nY0.000 nZ-1.000 E11952.96 F3600
G1 X275.24 Y538.23 Z7.20 nX0.000 nY0.000 nZ-1.000 E11967.80 F3600
G1 X273.32 Y545.44 Z7.20 nX0.000 nY0.000 nZ-1.000 E11982.64 F3600
G1 X272.38 Y552.84 Z7.20 nX0.000 nY0.000 nZ-1.000 E11997.48 F3600
G1 X272.45 Y560.29 Z7.20 nX0.000 nY0.000 nZ-1.000 E12012.32 F3600
G1 X273.52 Y567.68 Z7.20 nX0.000 nY0.000 nZ-1.000 E12027.16 F3600
G1 X275.58 Y574.84 Z7.20 nX0.000 nY0.000 nZ-1.000 E12042.00 F3600
G1 X278.59 Y581.67 Z7.20 nX0.000 nY0.000 nZ-1.000 E12056.84 F3600
G1 X282.49 Y588.03 Z7.20 nX0.000 nY0.000 nZ-1.000 E12071.68 F3600
G1 X287.21 Y593.80 Z7.20 nX0.000 nY0.000 nZ-1.000 E12086.51 F3600
G1 X292.67 Y598.88 Z7.20 nX0.000 nY0.000 nZ-1.000 E12101.35 F3600
G1 X298.77 Y603.18 Z7.20 nX0.000 nY0.000 nZ-1.000 E12116.19 F3600
G1 X305.38 Y606.62 Z7.20 nX0.000 nY0.000 nZ-1.000 E12131.03 F3600
G1 X312.41 Y609.14 Z7.20 nX0.000 nY0.000 nZ-1.000 E12145.87 F3600
G1 X319.70 Y610.68 Z7.20 nX0.000 nY0.000 nZ-1.000 E12160.71 F3600
G1 X327.14 Y611.23 Z7.20 nX0.000 nY0.000 nZ-1.000 E12175.55 F3600
G1 X332.16 Y606.23 Z7.20 nX0.000 nY0.000 nZ-1.000 E12189.64 F3600
G1 X477.46 Y606.23 Z7.20 nX0.000 nY0.000 nZ-1.000 E12478.72 F3600
G1 X484.54 Y605.73 Z7.20 nX0.000 nY0.000 nZ-1.000 E12492.85 F3600
G1 X491.48 Y604.23 Z7.20 nX0.000 nY0.000 nZ-1.000 E12506.97 F3600
G1 X498.14 Y601.77 Z7.20 nX0.000 nY0.000 nZ-1.000 E12521.10 F3600
G1 X504.39 Y598.39 Z7.20 nX0.000 nY0.000 nZ-1.000 E12535.23 F3600
G1 X510.09 Y594.16 Z7.20 nX0.000 nY0.000 nZ-1.000 E12549.36 F3600
G1 X515.15 Y589.17 Z7.20 nX0.000 nY0.000 nZ-1.000 E12563.48 F3600
G1 X519.44 Y583.52 Z7.20 nX0.000 nY0.000 nZ-1.000 E12577.61 F3600
G1 X522.90 Y577.32 Z7.20 nX0.000 nY0.000 nZ-1.000 E12591.74 F3600
G1 X525.45 Y570.69 Z7.20 nX0.000 nY0.000 nZ-1.000 E12605.87 F3600
G1 X527.03 Y563.77 Z7.20 nX0.000 nY0.000 nZ-1.000 E12620.00 F3600
G1 X527.62 Y556.69 Z7.20 nX0.000 nY0.000 nZ-1.000 E12634.12 F3600
G1 X527.21 Y549.60 Z7.20 nX0.000 nY0.000 nZ-1.000 E12648.25 F3600
G1 X525.80 Y542.64 Z7.20 nX0.000 nY0.000 nZ-1.000 E12662.38 F3600
G1 X523.42 Y535.95 Z7.20 nX0.000 nY0.000 nZ-1.000 E12676.51 F3600
G1 X520.12 Y529.66 Z7.20 nX0.000 nY0.000 nZ-1.000 E12690.63 F3600
G1 X515.97 Y523.90 Z7.20 nX0.000 nY0.000 nZ-1.000 E12704.76 F3600
G1 X511.04 Y518.79 Z7.20 nX0.000 nY0.000 nZ-1.000 E12718.89 F3600
G1 X505.44 Y514.42 Z7.20 nX0.000 nY0.000 nZ-1.000 E12733.02 F3600
G1 X499.28 Y510.89 Z7.20 nX0.000 nY0.000 nZ-1.000 E12747.14 F3600
G1 X492.69 Y508.26 Z7.20 nX0.000 nY0.000 nZ-1.000 E12761.27 F3600
G1 X485.78 Y506.59 Z7.20 nX0.000 nY0.000 nZ-1.000 E12775.40 F3600
G1 X478.72 Y505.90 Z7.20 nX0.000 nY0.000 nZ-1.000 E12789.53 F3600
G1 X471.62 Y506.23 Z7.20 nX0.000 nY0.000 nZ-1.000 E12803.66 F3600
G1 X333.30 Y506.23 Z7.20 nX0.000 nY0.000 nZ-1.000 E13078.86 F3600
G1 X326.21 Y505.90 Z7.20 nX0.000 nY0.000 nZ-1.000 E13092.97 F3600
G1 X319.16 Y506.58 Z7.20 nX0.000 nY0.000 nZ-1.000 E13107.07 F3600
G1 X312.27 Y508.24 Z7.20 nX0.000 nY0.000 nZ-1.000 E13121.17 F3600
G1 X305.68 Y510.86 Z7.20 nX0.000 nY0.000 nZ-1.000 E13135.27 F3600
G1 X299.53 Y514.38 Z7.20 nX0.000 nY0.000 nZ-1.000 E13149.38 F3600
G1 X293.93 Y518.73 Z7.20 nX0.000 nY0.000 nZ-1.000 E13163.48 F3600
G1 X289.01 Y523.83 Z7.20 nX0.000 nY0.000 nZ-1.000 E13177.58 F3600
G1 X284.85 Y529.57 Z7.20 nX0.000 nY0.000 nZ-1.000 E13191.69 F3600
G1 X281.54 Y535.84 Z7.20 nX0.000 nY0.000 nZ-1.000 E13205.79 F3600
G1 X279.15 Y542.51 Z7.20 nX0.000 nY0.000 nZ-1.000 E13219.89 F3600
G1 X277.72 Y549.46 Z7.20 nX0.000 nY0.000 nZ-1.000 E13233.99 F3600
G1 X277.29 Y556.53 Z7.20 nX0.000 nY0.000 nZ-1.000 E13248.10 F3600
G1 X277.85 Y563.60 Z7.20 nX0.000 nY0.000 nZ-1.000 E13262.20 F3600
G1 X279.41 Y570.51 Z7.20 nX0.000 nY0.000 nZ-1.000 E13276.30 F3600
G1 X281.93 Y577.14 Z7.20 nX0.000 nY0.000 nZ-1.000 E13290.41 F3600
G1 X285.35 Y583.34 Z7.20 nX0.000 nY0.000 nZ-1.000 E13304.51 F3600
G1 X289.62 Y589.01 Z7.20 nX0.000 nY0.000 nZ-1.000 E13318.61 F3600
G1 X294.64 Y594.01 Z7.20 nX0.000 nY0.000 nZ-1.000 E13332.71 F3600
G1 X300.32 Y598.26 Z7.20 nX0.000 nY0.000 nZ-1.000 E13346.82 F3600
G1 X306.53 Y601.66 Z7.20 nX0.000 nY0.000 nZ-1.000 E13360.92 F3600
G1 X313.17 Y604.15 Z7.20 nX0.000 nY0.000 nZ-1.000 E13375.02 F3600
G1 X317.25 Y605.06 Z7.20 nX0.000 nY0.000 nZ-1.000 E13383.33 F3600
G1 X320.09 Y605.69 Z7.20 nX0.000 nY0.000 nZ-1.000 E13389.13 F3600
G1 X327.16 Y606.23 Z7.20 nX0.000 nY0.000 nZ-1.000 E13403.23 F3600
;Layer 8
G0 X471.34 Y501.23 Z8.20 nX0.000 nY0.000 nZ-1.000 F21000
G1 X471.34 Y501.23 Z8.20 nX0.000 nY0.000 nZ-1.000 E13403.23 F3600
G1 X333.58 Y501.23 Z8.20 nX0.000 nY0.000 nZ-1.000 E13677.30 F3600
G1 X326.13 Y500.90 Z8.20 nX0.000 nY0.000 nZ-1.000 E13692.14 F3600
G1 X318.70 Y501.59 Z8.20 nX0.000 nY0.000 nZ-1.000 E13706.98 F3600
G1 X311.43 Y503.27 Z8.20 nX0.000 nY0.000 nZ-1.000 E13721.82 F3600
G1 X304.46 Y505.91 Z8.20 nX0.000 nY0.000 nZ-1.000 E13736.66 F3600
G1 X297.90 Y509.47 Z8.20 nX0.000 nY0.000 nZ-1.000 E13751.50 F3600
G1 X291.89 Y513.88 Z8.20 nX0.000 nY0.000 nZ-1.000 E13766.34 F3600
G1 X286.53 Y519.06 Z8.20 nX0.000 nY0.000 nZ-1.000 E13781.18 F3600
G1 X281.91 Y524.92 Z8.20 nX0.000 nY0.000 nZ-1.000 E13796.02 F3600
G1 X278.13 Y531.35 Z8.20 nX0.000 nY0.000 nZ-1.000 E13810.86 F3600
G1 X275.24 Y538.23 Z8.20 nX0.000 nY0.000 nZ-1.000 E13825.70 F3600
G1 X273.32 Y545.44 Z8.20 nX0.000 nY0.000 nZ-1.000 E13840.54 F3600
G1 X272.38 Y552.84 Z8.20 nX0.000 nY0.000 nZ-1.000 E13855.38 F3600
G1 X272.45 Y560.29 Z8.20 nX0.000 nY0.000 nZ-1.000 E13870.22 F3600
G1 X273.52 Y567.68 Z8.20 nX0.000 nY0.000 nZ-1.000 E13885.06 F3600
G1 X275.58 Y574.84 Z8.20 nX0.000 nY0.000 nZ-1.000 E13899.90 F3600
G1 X278.59 Y581.67 Z8.20 nX0.000 nY0.000 nZ-1.000 E13914.74 F3600
G1 X282.49 Y588.03 Z8.20 nX0.000 nY0.000 nZ-1.000 E13929.58 F3600
G1 X287.21 Y593.80 Z8.20 nX0.000 nY0.000 nZ-1.000 E13944.42 F3600
G1 X292.67 Y598.88 Z8.20 nX0.000 nY0.000 nZ-1.000 E13959.26 F3600
G1 X298.77 Y603.18 Z8.20 nX0.000 nY0.000 nZ-1.000 E13974.10 F3600
G1 X305.38 Y606.62 Z8.20 nX0.000 nY0.000 nZ-1.000 E13988.94 F3600
G1 X312.41 Y609.14 Z8.20 nX0.000 nY0.000 nZ-1.000 E14003.78 F3600
G1 X319.70 Y610.68 Z8.20 nX0.000 nY0.000 nZ-1.000 E14018.62 F3600
G1 X327.14 Y611.23 Z8.20 nX0.000 nY0.000 nZ-1.000 E14033.46 F3600
G1 X332.16 Y606.23 Z8.20 nX0.000 nY0.000 nZ-1.000 E14047.54 F3600
G1 X477.46 Y606.23 Z8.20 nX0.000 nY0.000 nZ-1.000 E14336.62 F3600
G1 X484.54 Y605.73 Z8.20 nX0.000 nY0.000 nZ-1.000 E14350.75 F3600
G1 X491.48 Y604.23 Z8.20 nX0.000 nY0.000 nZ-1.000 E14364.88 F3600
G1 X498.14 Y601.77 Z8.20 nX0.000 nY0.000 nZ-1.000 E14379.00 F3600
G1 X504.39 Y598.39 Z8.20 nX0.000 nY0.000 nZ-1.000 E14393.13 F3600
G1 X510.09 Y594.16 Z8.20 nX0.000 nY0.000 nZ-1.000 E14407.26 F3600
G1 X515.15 Y589.17 Z8.20 nX0.000 nY0.000 nZ-1.000 E14421.39 F3600
G1 X519.44 Y583.52 Z8.20 nX0.000 nY0.000 nZ-1.000 E14435.52 F3600
G1 X522.90 Y577.32 Z8.20 nX0.000 nY0.000 nZ-1.000 E14449.64 F3600
G1 X525.45 Y570.69 Z8.20 nX0.000 nY0.000 nZ-1.000 E14463.77 F3600
G1 X527.03 Y563.77 Z8.20 nX0.000 nY0.000 nZ-1.000 E14477.90 F3600
G1 X527.62 Y556.69 Z8.20 nX0.000 nY0.000 nZ-1.000 E14492.03 F3600
G1 X527.21 Y549.60 Z8.20 nX0.000 nY0.000 nZ-1.000 E14506.15 F3600
G1 X525.80 Y542.64 Z8.20 nX0.000 nY0.000 nZ-1.000 E14520.28 F3600
G1 X523.42 Y535.95 Z8.20 nX0.000 nY0.000 nZ-1.000 E14534.41 F3600
G1 X520.12 Y529.66 Z8.20 nX0.000 nY0.000 nZ-1.000 E14548.54 F3600
G1 X515.97 Y523.90 Z8.20 nX0.000 nY0.000 nZ-1.000 E14562.66 F3600
G1 X511.04 Y518.79 Z8.20 nX0.000 nY0.000 nZ-1.000 E14576.79 F3600
G1 X505.44 Y514.42 Z8.20 nX0.000 nY0.000 nZ-1.000 E14590.92 F3600
G1 X499.28 Y510.89 Z8.20 nX0.000 nY0.000 nZ-1.000 E14605.05 F3600
G1 X492.69 Y508.26 Z8.20 nX0.000 nY0.000 nZ-1.000 E14619.18 F3600
G1 X485.78 Y506.59 Z8.20 nX0.000 nY0.000 nZ-1.000 E14633.30 F3600
G1 X478.72 Y505.90 Z8.20 nX0.000 nY0.000 nZ-1.000 E14647.43 F3600
G1 X471.62 Y506.23 Z8.20 nX0.000 nY0.000 nZ-1.000 E14661.56 F3600
G1 X333.30 Y506.23 Z8.20 nX0.000 nY0.000 nZ-1.000 E14936.77 F3600
G1 X326.21 Y505.90 Z8.20 nX0.000 nY0.000 nZ-1.000 E14950.87 F3600
G1 X319.16 Y506.58 Z8.20 nX0.000 nY0.000 nZ-1.000 E14964.97 F3600
G1 X312.27 Y508.24 Z8.20 nX0.000 nY0.000 nZ-1.000 E14979.07 F3600
G1 X305.68 Y510.86 Z8.20 nX0.000 nY0.000 nZ-1.000 E14993.18 F3600
G1 X299.53 Y514.38 Z8.20 nX0.000 nY0.000 nZ-1.000 E15007.28 F3600
G1 X293.93 Y518.73 Z8.20 nX0.000 nY0.000 nZ-1.000 E15021.38 F3600
G1 X289.01 Y523.83 Z8.20 nX0.000 nY0.000 nZ-1.000 E15035.49 F3600
G1 X284.85 Y529.57 Z8.20 nX0.000 nY0.000 nZ-1.000 E15049.59 F3600
G1 X281.54 Y535.84 Z8.20 nX0.000 nY0.000 nZ-1.000 E15063.69 F3600
G1 X279.15 Y542.51 Z8.20 nX0.000 nY0.000 nZ-1.000 E15077.79 F3600
G1 X277.72 Y549.46 Z8.20 nX0.000 nY0.000 nZ-1.000 E15091.90 F3600
G1 X277.29 Y556.53 Z8.20 nX0.000 nY0.000 nZ-1.000 E15106.00 F3600
G1 X277.85 Y563.60 Z8.20 nX0.000 nY0.000 nZ-1.000 E15120.10 F3600
G1 X279.41 Y570.51 Z8.20 nX0.000 nY0.000 nZ-1.000 E15134.21 F3600
G1 X281.93 Y577.14 Z8.20 nX0.000 nY0.000 nZ-1.000 E15148.31 F3600
G1 X285.35 Y583.34 Z8.20 nX0.000 nY0.000 nZ-1.000 E15162.41 F3600
G1 X289.62 Y589.01 Z8.20 nX0.000 nY0.000 nZ-1.000 E15176.52 F3600
G1 X294.64 Y594.01 Z8.20 nX0.000 nY0.000 nZ-1.000 E15190.62 F3600
G1 X300.32 Y598.26 Z8.20 nX0.000 nY0.000 nZ-1.000 E15204.72 F3600
G1 X306.53 Y601.66 Z8.20 nX0.000 nY0.000 nZ-1.000 E15218.82 F3600
G1 X313.17 Y604.15 Z8.20 nX0.000 nY0.000 nZ-1.000 E15232.93 F3600
G1 X317.25 Y605.06 Z8.20 nX0.000 nY0.000 nZ-1.000 E15241.24 F3600
G1 X320.09 Y605.69 Z8.20 nX0.000 nY0.000 nZ-1.000 E15247.03 F3600
G1 X327.16 Y606.23 Z8.20 nX0.000 nY0.000 nZ-1.000 E15261.13 F3600
;Layer 9
G0 X471.34 Y501.23 Z9.20 nX0.000 nY0.000 nZ-1.000 F21000
G1 X471.34 Y501.23 Z9.20 nX0.000 nY0.000 nZ-1.000 E15261.13 F3600
G1 X333.58 Y501.23 Z9.20 nX0.000 nY0.000 nZ-1.000 E15535.21 F3600
G1 X326.13 Y500.90 Z9.20 nX0.000 nY0.000 nZ-1.000 E15550.05 F3600
G1 X318.70 Y501.59 Z9.20 nX0.000 nY0.000 nZ-1.000 E15564.89 F3600
G1 X311.43 Y503.27 Z9.20 nX0.000 nY0.000 nZ-1.000 E15579.73 F3600
G1 X304.46 Y505.91 Z9.20 nX0.000 nY0.000 nZ-1.000 E15594.57 F3600
G1 X297.90 Y509.47 Z9.20 nX0.000 nY0.000 nZ-1.000 E15609.40 F3600
G1 X291.89 Y513.88 Z9.20 nX0.000 nY0.000 nZ-1.000 E15624.24 F3600
G1 X286.53 Y519.06 Z9.20 nX0.000 nY0.000 nZ-1.000 E15639.08 F3600
G1 X281.91 Y524.92 Z9.20 nX0.000 nY0.000 nZ-1.000 E15653.92 F3600
G1 X278.13 Y531.35 Z9.20 nX0.000 nY0.000 nZ-1.000 E15668.76 F3600
G1 X275.24 Y538.23 Z9.20 nX0.000 nY0.000 nZ-1.000 E15683.60 F3600
G1 X273.32 Y545.44 Z9.20 nX0.000 nY0.000 nZ-1.000 E15698.44 F3600
G1 X272.38 Y552.84 Z9.20 nX0.000 nY0.000 nZ-1.000 E15713.28 F3600
G1 X272.45 Y560.29 Z9.20 nX0.000 nY0.000 nZ-1.000 E15728.12 F3600
G1 X273.52 Y567.68 Z9.20 nX0.000 nY0.000 nZ-1.000 E15742.96 F3600
G1 X275.58 Y574.84 Z9.20 nX0.000 nY0.000 nZ-1.000 E15757.80 F3600
G1 X278.59 Y581.67 Z9.20 nX0.000 nY0.000 nZ-1.000 E15772.64 F3600
G1 X282.49 Y588.03 Z9.20 nX0.000 nY0.000 nZ-1.000 E15787.48 F3600
G1 X287.21 Y593.80 Z9.20 nX0.000 nY0.000 nZ-1.000 E15802.32 F3600
G1 X292.67 Y598.88 Z9.20 nX0.000 nY0.000 nZ-1.000 E15817.16 F3600
G1 X298.77 Y603.18 Z9.20 nX0.000 nY0.000 nZ-1.000 E15832.00 F3600
G1 X305.38 Y606.62 Z9.20 nX0.000 nY0.000 nZ-1.000 E15846.84 F3600
G1 X312.41 Y609.14 Z9.20 nX0.000 nY0.000 nZ-1.000 E15861.68 F3600
G1 X319.70 Y610.68 Z9.20 nX0.000 nY0.000 nZ-1.000 E15876.52 F3600
G1 X327.14 Y611.23 Z9.20 nX0.000 nY0.000 nZ-1.000 E15891.36 F3600
G1 X332.16 Y606.23 Z9.20 nX0.000 nY0.000 nZ-1.000 E15905.45 F3600
G1 X477.46 Y606.23 Z9.20 nX0.000 nY0.000 nZ-1.000 E16194.52 F3600
G1 X484.54 Y605.73 Z9.20 nX0.000 nY0.000 nZ-1.000 E16208.65 F3600
G1 X491.48 Y604.23 Z9.20 nX0.000 nY0.000 nZ-1.000 E16222.78 F3600
G1 X498.14 Y601.77 Z9.20 nX0.000 nY0.000 nZ-1.000 E16236.91 F3600
G1 X504.39 Y598.39 Z9.20 nX0.000 nY0.000 nZ-1.000 E16251.04 F3600
G1 X510.09 Y594.16 Z9.20 nX0.000 nY0.000 nZ-1.000 E16265.16 F3600
G1 X515.15 Y589.17 Z9.20 nX0.000 nY0.000 nZ-1.000 E16279.29 F3600
G1 X519.44 Y583.52 Z9.20 nX0.000 nY0.000 nZ-1.000 E16293.42 F3600
G1 X522.90 Y577.32 Z9.20 nX0.000 nY0.000 nZ-1.000 E16307.55 F3600
G1 X525.45 Y570.69 Z9.20 nX0.000 nY0.000 nZ-1.000 E16321.67 F3600
G1 X527.03 Y563.77 Z9.20 nX0.000 nY0.000 nZ-1.000 E16335.80 F3600
G1 X527.62 Y556.69 Z9.20 nX0.000 nY0.000 nZ-1.000 E16349.93 F3600
G1 X527.21 Y549.60 Z9.20 nX0.000 nY0.000 nZ-1.000 E16364.06 F3600
G1 X525.80 Y542.64 Z9.20 nX0.000 nY0.000 nZ-1.000 E16378.18 F3600
G1 X523.42 Y535.95 Z9.20 nX0.000 nY0.000 nZ-1.000 E16392.31 F3600
G1 X520.12 Y529.66 Z9.20 nX0.000 nY0.000 nZ-1.000 E16406.44 F3600
G1 X515.97 Y523.90 Z9.20 nX0.000 nY0.000 nZ-1.000 E16420.57 F3600
G1 X511.04 Y518.79 Z9.20 nX0.000 nY0.000 nZ-1.000 E16434.70 F3600
G1 X505.44 Y514.42 Z9.20 nX0.000 nY0.000 nZ-1.000 E16448.82 F3600
G1 X499.28 Y510.89 Z9.20 nX0.000 nY0.000 nZ-1.000 E16462.95 F3600
G1 X492.69 Y508.26 Z9.20 nX0.000 nY0.000 nZ-1.000 E16477.08 F3600
G1 X485.78 Y506.59 Z9.20 nX0.000 nY0.000 nZ-1.000 E16491.21 F3600
G1 X478.72 Y505.90 Z9.20 nX0.000 nY0.000 nZ-1.000 E16505.33 F3600
G1 X471.62 Y506.23 Z9.20 nX0.000 nY0.000 nZ-1.000 E16519.46 F3600
G1 X333.30 Y506.23 Z9.20 nX0.000 nY0.000 nZ-1.000 E16794.67 F3600
G1 X326.21 Y505.90 Z9.20 nX0.000 nY0.000 nZ-1.000 E16808.77 F3600
G1 X319.16 Y506.58 Z9.20 nX0.000 nY0.000 nZ-1.000 E16822.88 F3600
G1 X312.27 Y508.24 Z9.20 nX0.000 nY0.000 nZ-1.000 E16836.98 F3600
G1 X305.68 Y510.86 Z9.20 nX0.000 nY0.000 nZ-1.000 E16851.08 F3600
G1 X299.53 Y514.38 Z9.20 nX0.000 nY0.000 nZ-1.000 E16865.18 F3600
G1 X293.93 Y518.73 Z9.20 nX0.000 nY0.000 nZ-1.000 E16879.29 F3600
G1 X289.01 Y523.83 Z9.20 nX0.000 nY0.000 nZ-1.000 E16893.39 F3600
G1 X284.85 Y529.57 Z9.20 nX0.000 nY0.000 nZ-1.000 E16907.49 F3600
G1 X281.54 Y535.84 Z9.20 nX0.000 nY0.000 nZ-1.000 E16921.60 F3600
G1 X279.15 Y542.51 Z9.20 nX0.000 nY0.000 nZ-1.000 E16935.70 F3600
G1 X277.72 Y549.46 Z9.20 nX0.000 nY0.000 nZ-1.000 E16949.80 F3600
G1 X277.29 Y556.53 Z9.20 nX0.000 nY0.000 nZ-1.000 E16963.90 F3600
G1 X277.85 Y563.60 Z9.20 nX0.000 nY0.000 nZ-1.000 E16978.01 F3600
G1 X279.41 Y570.51 Z9.20 nX0.000 nY0.000 nZ-1.000 E16992.11 F3600
G1 X281.93 Y577.14 Z9.20 nX0.000 nY0.000 nZ-1.000 E17006.21 F3600
G1 X285.35 Y583.34 Z9.20 nX0.000 nY0.000 nZ-1.000 E17020.32 F3600
G1 X289.62 Y589.01 Z9.20 nX0.000 nY0.000 nZ-1.000 E17034.42 F3600
G1 X294.64 Y594.01 Z9.20 nX0.000 nY0.000 nZ-1.000 E17048.52 F3600
G1 X300.32 Y598.26 Z9.20 nX0.000 nY0.000 nZ-1.000 E17062.62 F3600
G1 X306.53 Y601.66 Z9.20 nX0.000 nY0.000 nZ-1.000 E17076.73 F3600
G1 X313.17 Y604.15 Z9.20 nX0.000 nY0.000 nZ-1.000 E17090.83 F3600
G1 X317.25 Y605.06 Z9.20 nX0.000 nY0.000 nZ-1.000 E17099.14 F3600
G1 X320.09 Y605.69 Z9.20 nX0.000 nY0.000 nZ-1.000 E17104.93 F3600
G1 X327.16 Y606.23 Z9.20 nX0.000 nY0.000 nZ-1.000 E17119.04 F3600
